{"type": "FeatureCollection", "features": [ {"type": "Feature", "properties": {"norad_id": 30674, "name": "FENGYUN 1C DEB", "group": "fengyun-1c-debris", "lat": 9.407337678966451, "lon": -37.882139112087245, "alt_km": 602.2066434581511, "timestamp": "2025-12-04T21:36:16.150871+00:00", "meta": {"OBJECT_NAME": "FENGYUN 1C DEB", "OBJECT_ID": "1999-025AQG", "EPOCH": "2025-12-03T22:20:03.457248", "MEAN_MOTION": 14.93512908, "ECCENTRICITY": 0.002403, "INCLINATION": 98.9413, "RA_OF_ASC_NODE": 139.5213, "ARG_OF_PERICENTER": 323.2865, "MEAN_ANOMALY": 36.6704, "EPHEMERIS_TYPE": 0, "CLASSIFICATION_TYPE": "U", "NORAD_CAT_ID": 30674, "ELEMENT_SET_NO": 999, "REV_AT_EPOCH": 97220, "BSTAR": 0.014216717, "MEAN_MOTION_DOT": 0.00153707, "MEAN_MOTION_DDOT": 0}, "tle": {"line1": "1 30674U 99025AQG 25337.93059557  .00153707  00000+0  14217-1 0  9996", "line2": "2 30674  98.9413 139.5213 0024030 323.2865  36.6704 14.93512908972206"}}, "geometry": {"type": "Point", "coordinates": [-37.882139112087245, 9.407337678966451]}}, {"type": "Feature", "properties": {"norad_id": 30675, "name": "FENGYUN 1C DEB", "group": "fengyun-1c-debris", "lat": -20.90055539545888, "lon": 61.39038661289581, "alt_km": 838.7392381211348, "timestamp": "2025-12-04T21:36:16.150881+00:00", "meta": {"OBJECT_NAME": "FENGYUN 1C DEB", "OBJECT_ID": "1999-025AQH", "EPOCH": "2025-12-04T05:09:51.672960", "MEAN_MOTION": 14.27292132, "ECCENTRICITY": 0.00540581, "INCLINATION": 98.756, "RA_OF_ASC_NODE": 57.3305, "ARG_OF_PERICENTER": 193.1367, "MEAN_ANOMALY": 227.7338, "EPHEMERIS_TYPE": 0, "CLASSIFICATION_TYPE": "U", "NORAD_CAT_ID": 30675, "ELEMENT_SET_NO": 999, "REV_AT_EPOCH": 96770, "BSTAR": 0.0039408739, "MEAN_MOTION_DOT": 9.761e-05, "MEAN_MOTION_DDOT": 0}, "tle": {"line1": "1 30675U 99025AQH 25338.21518140  .00009761  00000+0  39409-2 0  9998", "line2": "2 30675  98.7560  57.3305 0054058 193.1367 227.7338 14.27292132967707"}}, "geometry": {"type": "Point", "coordinates": [61.39038661289581, -20.90055539545888]}}, {"type": "Feature", "properties": {"norad_id": 30676, "name": "FENGYUN 1C DEB", "group": "fengyun-1c-debris", "lat": -5.091584477834203, "lon": 166.56833190535912, "alt_km": 881.6404566941192, "timestamp": "2025-12-04T21:36:16.150891+00:00", "meta": {"OBJECT_NAME": "FENGYUN 1C DEB", "OBJECT_ID": "1999-025AQJ", "EPOCH": "2025-12-02T18:56:30.857856", "MEAN_MOTION": 13.73865098, "ECCENTRICITY": 0.04725506, "INCLINATION": 98.2658, "RA_OF_ASC_NODE": 163.9921, "ARG_OF_PERICENTER": 75.2867, "MEAN_ANOMALY": 290.0156, "EPHEMERIS_TYPE": 0, "CLASSIFICATION_TYPE": "U", "NORAD_CAT_ID": 30676, "ELEMENT_SET_NO": 999, "REV_AT_EPOCH": 93787, "BSTAR": 0.00097498076, "MEAN_MOTION_DOT": 2.025e-05, "MEAN_MOTION_DDOT": 0}, "tle": {"line1": "1 30676U 99025AQJ 25336.78924604  .00002025  00000+0  97498-3 0  9994", "line2": "2 30676  98.2658 163.9921 0472550  75.2867 290.0156 13.73865098937878"}}, "geometry": {"type": "Point", "coordinates": [166.56833190535912, -5.091584477834203]}}, {"type": "Feature", "properties": {"norad_id": 30677, "name": "FENGYUN 1C DEB", "group": "fengyun-1c-debris", "lat": 39.98752509473717, "lon": 17.312332941207927, "alt_km": 808.4788094980431, "timestamp": "2025-12-04T21:36:16.150901+00:00", "meta": {"OBJECT_NAME": "FENGYUN 1C DEB", "OBJECT_ID": "1999-025AQK", "EPOCH": "2025-12-04T15:21:03.197376", "MEAN_MOTION": 14.38054332, "ECCENTRICITY": 0.00658533, "INCLINATION": 98.2545, "RA_OF_ASC_NODE": 24.0554, "ARG_OF_PERICENTER": 228.428, "MEAN_ANOMALY": 263.8848, "EPHEMERIS_TYPE": 0, "CLASSIFICATION_TYPE": "U", "NORAD_CAT_ID": 30677, "ELEMENT_SET_NO": 999, "REV_AT_EPOCH": 97863, "BSTAR": 0.0026896775, "MEAN_MOTION_DOT": 8.318e-05, "MEAN_MOTION_DDOT": 0}, "tle": {"line1": "1 30677U 99025AQK 25338.63962034  .00008318  00000+0  26897-2 0  9995", "line2": "2 30677  98.2545  24.0554 0065853 228.4280 263.8848 14.38054332978636"}}, "geometry": {"type": "Point", "coordinates": [17.312332941207927, 39.98752509473717]}}, {"type": "Feature", "properties": {"norad_id": 30678, "name": "FENGYUN 1C DEB", "group": "fengyun-1c-debris", "lat": -73.72076945430763, "lon": -27.395705200396268, "alt_km": 773.7480396184692, "timestamp": "2025-12-04T21:36:16.150912+00:00", "meta": {"OBJECT_NAME": "FENGYUN 1C DEB", "OBJECT_ID": "1999-025AQL", "EPOCH": "2025-12-03T20:55:33.276288", "MEAN_MOTION": 14.23955571, "ECCENTRICITY": 0.00725569, "INCLINATION": 99.0792, "RA_OF_ASC_NODE": 298.3427, "ARG_OF_PERICENTER": 256.8994, "MEAN_ANOMALY": 158.0002, "EPHEMERIS_TYPE": 0, "CLASSIFICATION_TYPE": "U", "NORAD_CAT_ID": 30678, "ELEMENT_SET_NO": 999, "REV_AT_EPOCH": 95749, "BSTAR": 0.0062837327, "MEAN_MOTION_DOT": 0.00014795, "MEAN_MOTION_DDOT": 0}, "tle": {"line1": "1 30678U 99025AQL 25337.87191292  .00014795  00000+0  62837-2 0  9991", "line2": "2 30678  99.0792 298.3427 0072556 256.8994 158.0002 14.23955571957497"}}, "geometry": {"type": "Point", "coordinates": [-27.395705200396268, -73.72076945430763]}}, {"type": "Feature", "properties": {"norad_id": 30679, "name": "FENGYUN 1C DEB", "group": "fengyun-1c-debris", "lat": -37.043413781949056, "lon": -156.45022425337905, "alt_km": 1029.004022889595, "timestamp": "2025-12-04T21:36:16.150922+00:00", "meta": {"OBJECT_NAME": "FENGYUN 1C DEB", "OBJECT_ID": "1999-025AQM", "EPOCH": "2025-12-03T20:31:32.495808", "MEAN_MOTION": 13.79696036, "ECCENTRICITY": 0.01720682, "INCLINATION": 99.3826, "RA_OF_ASC_NODE": 29.6825, "ARG_OF_PERICENTER": 102.2082, "MEAN_ANOMALY": 326.1648, "EPHEMERIS_TYPE": 0, "CLASSIFICATION_TYPE": "U", "NORAD_CAT_ID": 30679, "ELEMENT_SET_NO": 999, "REV_AT_EPOCH": 94397, "BSTAR": 0.0010294673, "MEAN_MOTION_DOT": 1.146e-05, "MEAN_MOTION_DDOT": 0}, "tle": {"line1": "1 30679U 99025AQM 25337.85523722  .00001146  00000+0  10295-2 0  9994", "line2": "2 30679  99.3826  29.6825 0172068 102.2082 326.1648 13.79696036943977"}}, "geometry": {"type": "Point", "coordinates": [-156.45022425337905, -37.043413781949056]}}, {"type": "Feature", "properties": {"norad_id": 30680, "name": "FENGYUN 1C DEB", "group": "fengyun-1c-debris", "lat": 23.37131737199907, "lon": 17.474371615032084, "alt_km": 1291.9070686593277, "timestamp": "2025-12-04T21:36:16.150932+00:00", "meta": {"OBJECT_NAME": "FENGYUN 1C DEB", "OBJECT_ID": "1999-025AQN", "EPOCH": "2025-12-03T18:54:58.660416", "MEAN_MOTION": 13.55986196, "ECCENTRICITY": 0.03418184, "INCLINATION": 99.6291, "RA_OF_ASC_NODE": 20.5934, "ARG_OF_PERICENTER": 189.7717, "MEAN_ANOMALY": 169.6656, "EPHEMERIS_TYPE": 0, "CLASSIFICATION_TYPE": "U", "NORAD_CAT_ID": 30680, "ELEMENT_SET_NO": 999, "REV_AT_EPOCH": 92132, "BSTAR": 0.0063409958, "MEAN_MOTION_DOT": 6.424e-05, "MEAN_MOTION_DDOT": 0}, "tle": {"line1": "1 30680U 99025AQN 25337.78817894  .00006424  00000+0  63410-2 0  9995", "line2": "2 30680  99.6291  20.5934 0341818 189.7717 169.6656 13.55986196921322"}}, "geometry": {"type": "Point", "coordinates": [17.474371615032084, 23.37131737199907]}}, {"type": "Feature", "properties": {"norad_id": 30683, "name": "FENGYUN 1C DEB", "group": "fengyun-1c-debris", "lat": 15.213565972092594, "lon": 172.73827976333612, "alt_km": 877.2700245764399, "timestamp": "2025-12-04T21:36:16.150942+00:00", "meta": {"OBJECT_NAME": "FENGYUN 1C DEB", "OBJECT_ID": "1999-025AQR", "EPOCH": "2025-12-03T13:02:27.156768", "MEAN_MOTION": 14.0032745, "ECCENTRICITY": 0.01384063, "INCLINATION": 99.4287, "RA_OF_ASC_NODE": 348.7495, "ARG_OF_PERICENTER": 249.7667, "MEAN_ANOMALY": 279.9866, "EPHEMERIS_TYPE": 0, "CLASSIFICATION_TYPE": "U", "NORAD_CAT_ID": 30683, "ELEMENT_SET_NO": 999, "REV_AT_EPOCH": 95422, "BSTAR": 0.0019123493, "MEAN_MOTION_DOT": 3.027e-05, "MEAN_MOTION_DDOT": 0}, "tle": {"line1": "1 30683U 99025AQR 25337.54336987  .00003027  00000+0  19123-2 0  9999", "line2": "2 30683  99.4287 348.7495 0138406 249.7667 279.9866 14.00327450954229"}}, "geometry": {"type": "Point", "coordinates": [172.73827976333612, 15.213565972092594]}}, {"type": "Feature", "properties": {"norad_id": 30684, "name": "FENGYUN 1C DEB", "group": "fengyun-1c-debris", "lat": -23.45155520258228, "lon": -163.77857820539063, "alt_km": 999.8031156623701, "timestamp": "2025-12-04T21:36:16.150952+00:00", "meta": {"OBJECT_NAME": "FENGYUN 1C DEB", "OBJECT_ID": "1999-025AQS", "EPOCH": "2025-12-01T13:31:37.536960", "MEAN_MOTION": 13.66771783, "ECCENTRICITY": 0.02336022, "INCLINATION": 99.5313, "RA_OF_ASC_NODE": 17.113, "ARG_OF_PERICENTER": 298.0542, "MEAN_ANOMALY": 59.7156, "EPHEMERIS_TYPE": 0, "CLASSIFICATION_TYPE": "U", "NORAD_CAT_ID": 30684, "ELEMENT_SET_NO": 999, "REV_AT_EPOCH": 93476, "BSTAR": 0.00093442149, "MEAN_MOTION_DOT": 8.93e-06, "MEAN_MOTION_DDOT": 0}, "tle": {"line1": "1 30684U 99025AQS 25335.56362890  .00000893  00000+0  93442-3 0  9997", "line2": "2 30684  99.5313  17.1130 0233602 298.0542  59.7156 13.66771783934763"}}, "geometry": {"type": "Point", "coordinates": [-163.77857820539063, -23.45155520258228]}}, {"type": "Feature", "properties": {"norad_id": 30686, "name": "FENGYUN 1C DEB", "group": "fengyun-1c-debris", "lat": 9.685691946098068, "lon": 170.3509248671463, "alt_km": 721.745552690656, "timestamp": "2025-12-04T21:36:16.150962+00:00", "meta": {"OBJECT_NAME": "FENGYUN 1C DEB", "OBJECT_ID": "1999-025AQU", "EPOCH": "2025-12-04T12:03:50.439168", "MEAN_MOTION": 14.73734575, "ECCENTRICITY": 0.01441773, "INCLINATION": 99.0328, "RA_OF_ASC_NODE": 171.4643, "ARG_OF_PERICENTER": 146.2224, "MEAN_ANOMALY": 277.086, "EPHEMERIS_TYPE": 0, "CLASSIFICATION_TYPE": "U", "NORAD_CAT_ID": 30686, "ELEMENT_SET_NO": 999, "REV_AT_EPOCH": 99480, "BSTAR": 0.0022355019, "MEAN_MOTION_DOT": 0.00017221, "MEAN_MOTION_DDOT": 0}, "tle": {"line1": "1 30686U 99025AQU 25338.50266712  .00017221  00000+0  22355-2 0  9999", "line2": "2 30686  99.0328 171.4643 0144177 146.2224 277.0860 14.73734575994803"}}, "geometry": {"type": "Point", "coordinates": [170.3509248671463, 9.685691946098068]}}]}